[
    {
        "Altitude(m)": 571727.9327962089,
        "Argument of Periapsis(deg)": 0.019868973332140504,
        "Eccentricity": 0.0,
        "Inclination(deg)": 53.0,
        "Latitude(deg)": -52.84560283619633,
        "Longitude(deg)": -115.89458288924064,
        "Mean Anomaly(deg)": 264.82027860273274,
        "RAAN(deg)": 84.97043010558404,
        "Satellite Name": "Starlink Shell 1 388",
        "Satellite Number": 388,
        "Semi-Major Axis(m)": 6931778.249405717,
        "Time(s)": 570
    },
    {
        "Altitude(m)": 571754.6508384463,
        "Argument of Periapsis(deg)": 0.02021755181165174,
        "Eccentricity": 0.0,
        "Inclination(deg)": 53.0,
        "Latitude(deg)": -52.91505879347654,
        "Longitude(deg)": -114.90998617434468,
        "Mean Anomaly(deg)": 265.4471098062895,
        "RAAN(deg)": 84.96991133550658,
        "Satellite Name": "Starlink Shell 1 388",
        "Satellite Number": 388,
        "Semi-Major Axis(m)": 6931778.249405717,
        "Time(s)": 580
    },
    {
        "Altitude(m)": 571777.9239077409,
        "Argument of Periapsis(deg)": 0.020566130291162974,
        "Eccentricity": 0.0,
        "Inclination(deg)": 53.0,
        "Latitude(deg)": -52.97563328539031,
        "Longitude(deg)": -113.92231755260131,
        "Mean Anomaly(deg)": 266.0739410098462,
        "RAAN(deg)": 84.9693925654291,
        "Satellite Name": "Starlink Shell 1 388",
        "Satellite Number": 388,
        "Semi-Major Axis(m)": 6931778.249405717,
        "Time(s)": 590
    },
    {
        "Altitude(m)": 571797.7426942461,
        "Argument of Periapsis(deg)": 0.020914708770674213,
        "Eccentricity": 0.0,
        "Inclination(deg)": 53.0,
        "Latitude(deg)": -53.027282331986086,
        "Longitude(deg)": -112.93198456316959,
        "Mean Anomaly(deg)": 266.7007722134029,
        "RAAN(deg)": 84.96887379535163,
        "Satellite Name": "Starlink Shell 1 388",
        "Satellite Number": 388,
        "Semi-Major Axis(m)": 6931778.249405717,
        "Time(s)": 600
    },
    {
        "Altitude(m)": 571814.0992661759,
        "Argument of Periapsis(deg)": 0.021263287250185448,
        "Eccentricity": 0.0,
        "Inclination(deg)": 53.0,
        "Latitude(deg)": -53.06996820715555,
        "Longitude(deg)": -111.93940249756447,
        "Mean Anomaly(deg)": 267.3276034169596,
        "RAAN(deg)": 84.96835502527416,
        "Satellite Name": "Starlink Shell 1 388",
        "Satellite Number": 388,
        "Semi-Major Axis(m)": 6931778.249405717,
        "Time(s)": 610
    },
    {
        "Altitude(m)": 571826.9870732501,
        "Argument of Periapsis(deg)": 0.021611865729696686,
        "Eccentricity": 0.0,
        "Inclination(deg)": 53.0,
        "Latitude(deg)": -53.10365957330986,
        "Longitude(deg)": -110.94499274220378,
        "Mean Anomaly(deg)": 267.9544346205163,
        "RAAN(deg)": 84.96783625519669,
        "Satellite Name": "Starlink Shell 1 388",
        "Satellite Number": 388,
        "Semi-Major Axis(m)": 6931778.249405717,
        "Time(s)": 620
    },
    {
        "Altitude(m)": 571836.4009495168,
        "Argument of Periapsis(deg)": 0.02196044420920792,
        "Eccentricity": 0.0,
        "Inclination(deg)": 53.0,
        "Latitude(deg)": -53.12833159421463,
        "Longitude(deg)": -109.9491827547687,
        "Mean Anomaly(deg)": 268.5812658240731,
        "RAAN(deg)": 84.96731748511921,
        "Satellite Name": "Starlink Shell 1 388",
        "Satellite Number": 388,
        "Semi-Major Axis(m)": 6931778.249405717,
        "Time(s)": 630
    },
    {
        "Altitude(m)": 571842.3371156054,
        "Argument of Periapsis(deg)": 0.02230902268871916,
        "Eccentricity": 0.0,
        "Inclination(deg)": 53.0,
        "Latitude(deg)": -53.14396602504168,
        "Longitude(deg)": -108.95240348012523,
        "Mean Anomaly(deg)": 269.2080970276298,
        "RAAN(deg)": 84.96679871504175,
        "Satellite Name": "Starlink Shell 1 388",
        "Satellite Number": 388,
        "Semi-Major Axis(m)": 6931778.249405717,
        "Time(s)": 640
    },
    {
        "Altitude(m)": 571844.793180347,
        "Argument of Periapsis(deg)": 0.022657601168230398,
        "Eccentricity": 0.0,
        "Inclination(deg)": 53.0,
        "Latitude(deg)": -53.150551278871895,
        "Longitude(deg)": -107.95508925743732,
        "Mean Anomaly(deg)": 269.83492823118655,
        "RAAN(deg)": 84.96627994496427,
        "Satellite Name": "Starlink Shell 1 388",
        "Satellite Number": 388,
        "Semi-Major Axis(m)": 6931778.249405717,
        "Time(s)": 650
    },
    {
        "Altitude(m)": 571843.7681418263,
        "Argument of Periapsis(deg)": 0.023006179647741636,
        "Eccentricity": 0.0,
        "Inclination(deg)": 53.0,
        "Latitude(deg)": -53.14808246908563,
        "Longitude(deg)": -106.95767602515129,
        "Mean Anomaly(deg)": 270.4617594347432,
        "RAAN(deg)": 84.9657611748868,
        "Satellite Name": "Starlink Shell 1 388",
        "Satellite Number": 388,
        "Semi-Major Axis(m)": 6931778.249405717,
        "Time(s)": 660
    },
    {
        "Altitude(m)": 571839.2623878015,
        "Argument of Periapsis(deg)": 0.023354758127252868,
        "Eccentricity": 0.0,
        "Inclination(deg)": 53.0,
        "Latitude(deg)": -53.136561427276405,
        "Longitude(deg)": -105.96059951422995,
        "Mean Anomaly(deg)": 271.08859063829993,
        "RAAN(deg)": 84.96524240480933,
        "Satellite Name": "Starlink Shell 1 388",
        "Satellite Number": 388,
        "Semi-Major Axis(m)": 6931778.249405717,
        "Time(s)": 670
    },
    {
        "Altitude(m)": 571831.277695554,
        "Argument of Periapsis(deg)": 0.023703336606764106,
        "Eccentricity": 0.0,
        "Inclination(deg)": 53.0,
        "Latitude(deg)": -53.115996696532505,
        "Longitude(deg)": -104.96429495208086,
        "Mean Anomaly(deg)": 271.7154218418567,
        "RAAN(deg)": 84.96472363473185,
        "Satellite Name": "Starlink Shell 1 388",
        "Satellite Number": 388,
        "Semi-Major Axis(m)": 6931778.249405717,
        "Time(s)": 680
    },
    {
        "Altitude(m)": 571819.8172311162,
        "Argument of Periapsis(deg)": 0.024051915086275345,
        "Eccentricity": 0.0,
        "Inclination(deg)": 53.0,
        "Latitude(deg)": -53.08640350014701,
        "Longitude(deg)": -103.96919526101877,
        "Mean Anomaly(deg)": 272.3422530454134,
        "RAAN(deg)": 84.96420486465438,
        "Satellite Name": "Starlink Shell 1 388",
        "Satellite Number": 388,
        "Semi-Major Axis(m)": 6931778.249405717,
        "Time(s)": 690
    },
    {
        "Altitude(m)": 571804.8855479048,
        "Argument of Periapsis(deg)": 0.024400493565786583,
        "Eccentricity": 0.0,
        "Inclination(deg)": 53.0,
        "Latitude(deg)": -53.047803686022945,
        "Longitude(deg)": -102.9757292736322,
        "Mean Anomaly(deg)": 272.9690842489701,
        "RAAN(deg)": 84.96368609457691,
        "Satellite Name": "Starlink Shell 1 388",
        "Satellite Number": 388,
        "Semi-Major Axis(m)": 6931778.249405717,
        "Time(s)": 700
    },
    {
        "Altitude(m)": 571786.4885847603,
        "Argument of Periapsis(deg)": 0.024749072045297815,
        "Eccentricity": 0.0,
        "Inclination(deg)": 53.0,
        "Latitude(deg)": -53.00022564724829,
        "Longitude(deg)": -101.98432148719861,
        "Mean Anomaly(deg)": 273.5959154525268,
        "RAAN(deg)": 84.96316732449944,
        "Satellite Name": "Starlink Shell 1 388",
        "Satellite Number": 388,
        "Semi-Major Axis(m)": 6931778.249405717,
        "Time(s)": 710
    },
    {
        "Altitude(m)": 571764.6336633791,
        "Argument of Periapsis(deg)": 0.025097650524809053,
        "Eccentricity": 0.0,
        "Inclination(deg)": 53.0,
        "Latitude(deg)": -52.94370421951655,
        "Longitude(deg)": -100.99539034029407,
        "Mean Anomaly(deg)": 274.22274665608353,
        "RAAN(deg)": 84.96264855442196,
        "Satellite Name": "Starlink Shell 1 388",
        "Satellite Number": 388,
        "Semi-Major Axis(m)": 6931778.249405717,
        "Time(s)": 720
    },
    {
        "Altitude(m)": 571739.3294851539,
        "Argument of Periapsis(deg)": 0.02544622900432029,
        "Eccentricity": 0.0,
        "Inclination(deg)": 53.0,
        "Latitude(deg)": -52.87828055625584,
        "Longitude(deg)": -100.00934653291826,
        "Mean Anomaly(deg)": 274.8495778596402,
        "RAAN(deg)": 84.9621297843445,
        "Satellite Name": "Starlink Shell 1 388",
        "Satellite Number": 388,
        "Semi-Major Axis(m)": 6931778.249405717,
        "Time(s)": 730
    },
    {
        "Altitude(m)": 571710.5861274131,
        "Argument of Periapsis(deg)": 0.02579480748383153,
        "Eccentricity": 0.0,
        "Inclination(deg)": 53.0,
        "Latitude(deg)": -52.80400198250478,
        "Longitude(deg)": -99.02659291086172,
        "Mean Anomaly(deg)": -84.52359093680305,
        "RAAN(deg)": 84.96161101426702,
        "Satellite Name": "Starlink Shell 1 388",
        "Satellite Number": 388,
        "Semi-Major Axis(m)": 6931778.249405717,
        "Time(s)": 740
    },
    {
        "Altitude(m)": 571678.4150390628,
        "Argument of Periapsis(deg)": 0.026143385963342765,
        "Eccentricity": 0.0,
        "Inclination(deg)": 53.0,
        "Latitude(deg)": -52.720921828737445,
        "Longitude(deg)": -98.0475228957519,
        "Mean Anomaly(deg)": -83.89675973324633,
        "RAAN(deg)": 84.96109224418954,
        "Satellite Name": "Starlink Shell 1 388",
        "Satellite Number": 388,
        "Semi-Major Axis(m)": 6931778.249405717,
        "Time(s)": 750
    }
]